IRIDIUM 57 [-]          
1 25273U 98019B   23269.81208910  .00000740  00000+0  25371-3 0  9998
2 25273  86.3961  48.7889 0002120  92.2258 267.9181 14.34908933334717
IRIDIUM 63 [-]          
1 25286U 98021B   23269.58331231  .00000699  00000+0  23667-3 0  9991
2 25286  86.4036 345.8558 0002272  97.1842 262.9613 14.35418553333494
IRIDIUM 69 [-]          
1 25319U 98026A   23269.30994147  .00001024  00000+0  32204-3 0  9994
2 25319  86.4047   1.1098 0000997  12.2105 347.9118 14.39578059332402
IRIDIUM 71 [-]          
1 25320U 98026B   23269.71707574  .00000890  00000+0  27684-3 0  9993
2 25320  86.4039 355.7778 0003049  49.0558 311.0905 14.39917977333222
IRIDIUM 73 [-]          
1 25344U 98032C   23269.56382259  .00000853  00000+0  21504-3 0  9992
2 25344  86.4410 313.7199 0001841  77.2951 282.8459 14.50034053339278
IRIDIUM 82 [-]          
1 25467U 98051A   23269.39176577  .00018776  00000+0  11103-2 0  9990
2 25467  86.3933  50.1941 0149782 107.5927 254.1731 15.02283179328633
IRIDIUM 2 [-]           
1 25527U 98066A   23269.55764137  .00045279  00000+0  11176-2 0  9994
2 25527  85.5164 109.9156 0003389 267.6153  92.4711 15.40328808366745
